OBJECT_NAME,OBJECT_ID,EPOCH,MEAN_MOTION,ECCENTRICITY,INCLINATION,RA_OF_ASC_NODE,ARG_OF_PERICENTER,MEAN_ANOMALY,EPHEMERIS_TYPE,CLASSIFICATION_TYPE,NORAD_CAT_ID,ELEMENT_SET_NO,REV_AT_EPOCH,BSTAR,MEAN_MOTION_DOT,MEAN_MOTION_DDOT
GSAT0225 (GALILEO 29),2024-079A,2026-07-15T06:17:19.867200,1.70473538,.00003805,55.1358,100.2953,14.4420,161.4012,0,U,59598,999,1379,0,-.28E-6,0
GSAT0227 (GALILEO 30),2024-079C,2026-07-13T23:39:34.866144,1.70473814,.00028453,55.1303,100.3294,67.2681,292.7822,0,U,59600,999,1382,0,-.3E-6,0
GSAT0232 (GALILEO 32),2024-167A,2026-07-14T06:36:41.942880,1.70474020,.00064875,55.1796,220.5702,231.1885,162.2574,0,U,61182,999,1134,0,.67E-6,0
GSAT0226 (GALILEO 31),2024-167B,2026-07-15T12:58:33.996864,1.70474019,.00031991,55.1780,220.5424,236.5504,304.7029,0,U,61183,999,1133,0,.56E-6,0
BEIDOU-3 M25 (C47),2024-168B,2026-07-15T11:08:44.832192,1.86229867,.00033197,54.4462,301.2591,291.7369,124.6454,0,U,61186,999,1231,0,-.71E-6,0
BEIDOU-3 M27 (C49),2024-168C,2026-07-15T04:37:09.700896,1.86229911,.00009036,54.4419,301.2513,47.7207,321.3784,0,U,61187,999,978,0,-.7E-6,0
GPS BIII-7  (PRN 01),2024-242A,2026-07-15T06:17:50.127936,2.00571937,.00178506,54.8361,333.0431,4.0455,357.4977,0,U,62339,999,1182,0,-.98E-6,0
QZS-6 (QZSS/PRN 200),2025-023A,2026-07-15T14:27:01.274976,1.00266904,.00018318,0.0094,6.7011,125.3930,108.5250,0,U,62876,999,523,0,-.241E-5,0
COSMOS 2584 (704K),2025-042A,2026-07-13T21:18:41.244768,2.13103784,.000546,65.0996,71.8945,213.8001,146.2394,0,U,63130,999,1061,0,-.1E-6,0
GPS BIII-8  (PRN 21),2025-116A,2026-07-15T11:24:11.399616,2.00573676,.00084498,55.2539,29.9927,339.4442,358.8482,0,U,64202,999,843,0,-.73E-6,0
COSMOS 2596 (708K),2025-206B,2026-07-13T08:02:05.138880,2.13100618,.00111267,64.6178,314.0753,307.7533,103.9433,0,U,65590,999,647,0,-.64E-6,0
GSAT0233 (GALILEO 33),2025-302A,2026-07-15T09:15:28.068192,1.70473785,.00009271,54.3504,101.3271,154.2641,28.4174,0,U,67160,999,360,0,-.28E-6,0
GSAT0234 (GALILEO 34),2025-302C,2026-07-14T12:15:19.860192,1.70473847,.00023025,54.3528,101.3514,321.0338,224.6861,0,U,67162,999,364,0,-.3E-6,0
GPS BIII-9  (PRN 20),2026-017A,2026-07-13T02:56:26.877120,2.00570504,.00215668,55.1047,87.7143,259.9513,99.8468,0,U,67588,999,43213,0,-.33E-6,0
GPS BIII-10 (PRN 13),2026-087A,2026-07-15T11:14:09.755808,2.00572628,.00204615,54.9617,206.6692,106.0864,353.1427,0,U,68791,999,140,0,.49E-6,0
